ARIANE 5 R/B            
1 28499U 04049H   26064.45582592  .00001132  00000+0  13087-3 0  9995
2 28499  98.2618 232.7545 0084239   5.6646 354.5500 14.85257082145160
CZ-2D R/B               
1 28738U 05024B   26064.60392122  .00045815  00000+0  57191-3 0  9990
2 28738  97.3595  79.6011 0006429  57.0193 303.1681 15.59717553139146
ALOS (DAICHI)           
1 28931U 06002A   26064.89484651  .00002246  00000+0  38460-3 0  9991
2 28931  98.1215  20.8693 0001065  54.0703 306.0601 14.69796405 72927
H-2A R/B                
1 28932U 06002B   26064.38590766  .00011754  00000+0  58982-3 0  9996
2 28932  98.2403 211.0400 0051842 255.7586 103.7883 15.16308743 93783
RESURS-DK 1             
1 29228U 06021A   26064.70023870  .00003818  00000+0  22356-3 0  9997
2 29228  69.9309 247.3433 0002334 165.5355 194.5878 15.12710295 86929
CZ-4B R/B               
1 29507U 06046C   26064.78314909  .00006554  00000+0  33233-3 0  9994
2 29507  97.5598 109.7022 0031648 281.4804  78.2875 15.16857792 59459
CZ-2C R/B               
1 31114U 07010B   26064.78068063  .00000191  00000+0  10693-3 0  9996
2 31114  98.3978 178.2555 0057989 306.1971  53.3852 14.20244652979162
COSMO-SKYMED 1          
1 31598U 07023A   26064.85327231  .00004885  00000+0  43517-3 0  9994
2 31598  97.8862 255.8548 0000886  97.5167 262.6154 14.96498809 14337
COSMOS 2428             
1 31792U 07029A   26064.71178823  .00000061  00000+0  58401-4 0  9993
2 31792  70.9427 211.6924 0008925 281.2343  78.7775 14.12945029963539
SL-16 R/B               
1 31793U 07029B   26064.75543352 -.00000095  00000+0 -24594-4 0  9996
2 31793  70.9757 180.6541 0002372 277.2484 192.7201 14.14833448964813
KORONAS-FOTON           
1 33504U 09003A   26064.61455480  .00014419  00000+0  32328-3 0  9997
2 33504  82.4277 280.1155 0010935 163.4011 196.7596 15.43212499945116
CZ-2C R/B               
1 37731U 11030B   26064.83430981  .00002810  00000+0  35935-3 0  9998
2 37731  97.8541  22.1747 0052801   4.6438  85.1655 14.81205258789528
H-2A R/B                
1 38341U 12025E   26064.84703729  .00005896  00000+0  53350-3 0  9993
2 38341  98.4724  31.5853 0043591 327.1990  32.6524 14.95127657747640
SHIJIAN-16 (SJ-16)      
1 39358U 13057A   26064.87483103  .00000273  00000+0  29543-4 0  9994
2 39358  74.9733 192.3087 0015689 122.3384 237.9326 14.92319915670936
SL-4 R/B                
1 39679U 14021B   26064.21366335  .00019612  00000+0  43144-3 0  9996
2 39679  51.6094 359.1115 0097883  86.6279 274.5896 15.39008154655585
ALOS-2                  
1 39766U 14029A   26064.86380928  .00002009  00000+0  27568-3 0  9990
2 39766  97.9199 163.5165 0001438  97.0500 263.0875 14.79484534636309
YAOGAN-29               
1 41038U 15069A   26064.88108993  .00000198  00000+0  31099-4 0  9994
2 41038  98.0142  93.2997 0002094  42.6326 317.5049 14.82988591555312
ASTRO-H (HITOMI)        
1 41337U 16012A   26064.27126646  .00004856  00000+0  28588-3 0  9996
2 41337  31.0008  25.0587 0009998 287.1051  72.8492 15.09967820551569
HXMT (HUIYAN)           
1 42758U 17034A   26064.89402994  .00007309  00000+0  36568-3 0  9993
2 42758  43.0151  37.7735 0032555 212.7899 147.0929 15.17400681481965
SAOCOM 1A               
1 43641U 18076A   26064.84488841  .00000524  00000+0  72382-4 0  9999
2 43641  97.8884 253.0718 0001293  81.6747 278.4613 14.82164717400790
H-2A R/B                
1 43682U 18084L   26064.57776740  .00024381  00000+0  58318-3 0  9990
2 43682  98.8727 281.0878 0025756  39.2012 321.1089 15.41138735405148
SAOCOM 1B               
1 46265U 20059A   26064.80859668  .00001105  00000+0  14535-3 0  9994
2 46265  97.8882 252.1340 0001464  82.8296 277.3083 14.82169536298176
CSS (TIANHE)            
1 48274U 21035A   26064.81179226  .00018150  00000+0  21787-3 0  9992
2 48274  41.4658 231.7522 0006853 249.1722 110.8383 15.60440439277002
COSMOS 2550             
1 48865U 21056A   26064.86570436 -.00000196  00000+0 -12093-6 0  9990
2 48865  67.1448  52.4987 0008465 269.5568  90.4616 15.33837189262871
CZ-2C R/B               
1 52794U 22058K   26064.78302197  .00037731  00000+0  55687-3 0  9993
2 52794  50.1901 338.3810 0042185 184.2205 175.8415 15.53901570209528
CZ-2C R/B               
1 54039U 22132E   26064.52694388  .00047820  00000+0  55359-3 0  9994
2 54039  97.2958  67.7190 0020758 104.7871 255.5688 15.61437567189724
GSLV R/B                
1 54149U 22138AN  26064.70944186  .00004682  00000+0  40528-3 0  9997
2 54149  87.3887 167.6944 0022469 160.4976 199.7121 14.96742639183338
XRISM                   
1 57800U 23137A   26064.81039654  .00007125  00000+0  40521-3 0  9999
2 57800  31.0028 308.7544 0008081 358.9936   1.0685 15.11447555137208
ACS3                    
1 59588U 24077B   26064.82551608  .00028446  00000+0  22955-1 0  9995
2 59588  97.2101   6.8063 0056747  86.8820 273.8835 13.89413000 93660
SZ-21 MODULE            
1 66515U 25246C   26064.80716873  .00041310  00000+0  36032-3 0  9995
2 66515  41.4734 227.2544 0001428 292.1430  67.9260 15.68194204 17468
